COSMOS 2433 (720)       
1 32275C 07052A   22154.99979167  .00000000  00000-0  00000-0 0  1547
2 32275  66.0829   5.1162 0000422 189.0599 190.5137  2.13104318    16
COSMOS 2432 (719)       
1 32276C 07052B   22154.99979167  .00000000  00000-0  00000-0 0  1548
2 32276  66.0965   5.2170 0009369 342.4202 345.5246  2.13103642    15
COSMOS 2434 (721)       
1 32393C 07065A   22154.99979167  .00000000  00000-0  00000-0 0  1542
2 32393  64.3857 241.8862 0001898 105.7118 163.3759  2.13103258    15
COSMOS 2436 (723)       
1 32395C 07065C   22154.99979167  .00000000  00000-0  00000-0 0  1544
2 32395  64.3945 241.9432 0014676 357.3515  47.6293  2.13103115    12
COSMOS 2456 (730)       
1 36111C 09070A   22154.99979167 -.00000000  00000-0  00000-0 0  1543
2 36111  64.3504 121.5171 0005901 306.3235 128.5226  2.13099411    18
COSMOS 2457 (733)       
1 36112C 09070B   22154.99979167 -.00000000  00000-0  00000-0 0  1544
2 36112  64.3336 121.3932 0003833 193.4271   8.6019  2.13101629    15
COSMOS 2461 (735)       
1 36401C 10007B   22154.99979167  .00000000  00000-0  00000-0 0  1546
2 36401  65.9686   3.9562 0021112  13.0379 223.9810  2.13104103    12
COSMOS 2460 (732)       
1 36402C 10007C   22154.99979167  .00000000  00000-0  00000-0 0  1547
2 36402  65.9554   3.9069 0002691  73.3359 111.9702  2.13106738    19
COSMOS 2476 (744)       
1 37867C 11064A   22154.99979167 -.00000000  00000-0  00000-0 0  1548
2 37867  64.6395 122.8681 0022727 241.1955  99.0501  2.13101992    14
COSMOS 2477 (745)       
1 37868C 11064B   22154.99979167 -.00000000  00000-0  00000-0 0  1549
2 37868  64.6472 122.9326 0020120 242.9343 275.4287  2.13101818    11
COSMOS 2475 (743)       
1 37869C 11064C   22154.99979167 -.00000000  00000-0  00000-0 0  1540
2 37869  64.6545 122.9406 0024778 258.9218 217.4361  2.13102134    14
COSMOS 2485 (747)       
1 39155C 13019A   22154.99979167 -.00000000  00000-0  00000-0 0  1542
2 39155  64.8034 123.2935 0023085 237.1311 147.5042  2.13102072    13
COSMOS 2492 (754)       
1 39620C 14012A   22154.99979167  .00000000  00000-0  00000-0 0  1542
2 39620  65.8419   3.5900 0012221 334.4130  84.7220  2.13103374    16
COSMOS 2500 (755)       
1 40001C 14032A   22154.99979167  .00000000  00000-0  00000-0 0  1549
2 40001  65.7815   3.4523 0005186 180.0649  97.7765  2.13102714    17
COSMOS 2501 (702K)      
1 40315C 14075A   22154.99979167  .00000000  00000-0  00000-0 0  1544
2 40315  63.6929 241.6423 0018660 209.4074 236.3491  2.13101588    17
COSMOS 2514 (751)       
1 41330C 16008A   22154.99979167  .00000000  00000-0  00000-0 0  1540
2 41330  65.5817   3.1474 0008264 200.9744 260.6693  2.13102978    16
COSMOS 2547 (705K)      
1 46805C 20075A   22154.99979167  .00000000  00000-0  00000-0 0  1541
2 46805  64.6632 241.9222 0007594 244.0181 114.8558  2.13103386    19
COSMOS 2522 (752)       
1 42939C 17055A   22154.99979167  .00000000  00000-0  00000-0 0  1549
2 42939  64.1525 242.3057 0008511 240.6070 340.5102  2.13101962    10
COSMOS 2527 (756)       
1 43508C 18053A   22154.99979167 -.00000000  00000-0  00000-0 0  1542
2 43508  64.9664 123.2907 0009216 243.0547  10.1751  2.13102747    17
COSMOS 2529 (757)       
1 43687C 18086A   22154.99979167  .00000000  00000-0  00000-0 0  1545
2 43687  64.3674 242.6183 0010216 263.2075 273.4350  2.13102157    18
COSMOS 2534 (758)       
1 44299C 19030A   22154.99979167  .00000000  00000-0  00000-0 0  1545
2 44299  64.4391 242.5018 0012633 284.1802  27.0461  2.13102221    14
COSMOS 2544 (759)       
1 44850C 19088A   22154.99979167 -.00000000  00000-0  00000-0 0  1542
2 44850  64.9516 123.1431 0014198 264.4065  32.3031  2.13102491    15
COSMOS 2545 (760)       
1 45358C 20018A   22154.99979167  .00000000  00000-0  00000-0 0  1540
2 45358  64.9192   3.7664 0006441 246.0660 260.1360  2.13102970    17
